STARLINK-1583           
1 46064U 20055AP  26068.49754280  .00070613  00000+0  23857-2 0  9996
2 46064  53.1591 114.7608 0001092  94.0990 266.0136 15.30036564309038
HERMES-3                
1 63835U 25052BR  26068.93751242  .00020316  00000+0  69958-3 0  9995
2 63835  97.3987 324.6131 0007993 112.9583 247.2502 15.30039785 54863
